ALOS (DAICHI)           
1 28931U 06002A   26011.31432739  .00001491  00000+0  25923-3 0  9991
2 28931  98.1131 327.6015 0002096  94.8754 265.2691 14.69596440 65051
H-2A R/B                
1 28932U 06002B   26011.31080190  .00009913  00000+0  51153-3 0  9993
2 28932  98.2330 153.4924 0054679  76.8655 283.8669 15.15247987 85742
RESURS-DK 1             
1 29228U 06021A   26011.19887808  .00002571  00000+0  15404-3 0  9992
2 29228  69.9341  25.6937 0006232 234.1025 125.9563 15.12360493 78830
CZ-4B R/B               
1 29507U 06046C   26011.07468150  .00005329  00000+0  27498-3 0  9991
2 29507  97.5699  56.1338 0035247 106.5437 253.9672 15.16221654 51310
CZ-2C R/B               
1 31114U 07010B   26011.30863441  .00000125  00000+0  75842-4 0  9994
2 31114  98.3972 127.4718 0060114 100.9726 259.8222 14.20223816971575
COSMO-SKYMED 1          
1 31598U 07023A   26011.28716109  .00003996  00000+0  36115-3 0  9997
2 31598  97.8855 201.8857 0001525  78.7365 281.4027 14.96037197  6322
COSMOS 2428             
1 31792U 07029A   26011.26091667  .00000352  00000+0  21477-3 0  9990
2 31792  70.9392 323.8976 0005423 343.5563  16.5381 14.12907278955986
SL-16 R/B               
1 31793U 07029B   26011.16243404 -.00000162  00000+0 -59191-4 0  9994
2 31793  70.9770 293.3100 0002237 273.5206 187.7964 14.14825439957231
KORONAS-FOTON           
1 33504U 09003A   26010.96566157  .00010422  00000+0  24439-3 0  9994
2 33504  82.4318 335.8076 0011733  16.9240 343.2395 15.41841046936845
CZ-2C R/B               
1 37731U 11030B   26011.11041340  .00001247  00000+0  16408-3 0  9995
2 37731  97.8453 329.5752 0052750 176.1559 194.8963 14.81003759781571
H-2A R/B                
1 38341U 12025E   26011.16500596  .00003461  00000+0  31892-3 0  9990
2 38341  98.4635 333.6746 0045947 139.3739 221.0923 14.94660718739624
SHIJIAN-16 (SJ-16)      
1 39358U 13057A   26011.30650006  .00001835  00000+0  18279-3 0  9990
2 39358  74.9735 293.7056 0017833 251.6032 108.3218 14.92126544662946
