CCSDS_OMM_VERS = 2.0
CREATION_DATE  = 
ORIGINATOR     = 

OBJECT_NAME    = ALOS (DAICHI)
OBJECT_ID      = 2006-002A
CENTER_NAME    = EARTH
REF_FRAME      = TEME
TIME_SYSTEM    = UTC
MEAN_ELEMENT_THEORY = SGP/SGP4

EPOCH          = 2026-01-11T07:32:37.886496
MEAN_MOTION    = 14.69596440
ECCENTRICITY   = .00020969
INCLINATION    = 98.1131
RA_OF_ASC_NODE = 327.6015
ARG_OF_PERICENTER = 94.8754
MEAN_ANOMALY   = 265.2691

EPHEMERIS_TYPE = 0
CLASSIFICATION_TYPE = U
NORAD_CAT_ID   = 28931
ELEMENT_SET_NO = 999
REV_AT_EPOCH   = 6505
BSTAR          = .25922601E-3
MEAN_MOTION_DOT = .1491E-4
MEAN_MOTION_DDOT = 0

CCSDS_OMM_VERS = 2.0
CREATION_DATE  = 
ORIGINATOR     = 

OBJECT_NAME    = H-2A R/B
OBJECT_ID      = 2006-002B
CENTER_NAME    = EARTH
REF_FRAME      = TEME
TIME_SYSTEM    = UTC
MEAN_ELEMENT_THEORY = SGP/SGP4

EPOCH          = 2026-01-11T07:27:33.284160
MEAN_MOTION    = 15.15247987
ECCENTRICITY   = .00546799
INCLINATION    = 98.2330
RA_OF_ASC_NODE = 153.4924
ARG_OF_PERICENTER = 76.8655
MEAN_ANOMALY   = 283.8669

EPHEMERIS_TYPE = 0
CLASSIFICATION_TYPE = U
NORAD_CAT_ID   = 28932
ELEMENT_SET_NO = 999
REV_AT_EPOCH   = 8574
BSTAR          = .51152722E-3
MEAN_MOTION_DOT = .9913E-4
MEAN_MOTION_DDOT = 0

CCSDS_OMM_VERS = 2.0
CREATION_DATE  = 
ORIGINATOR     = 

OBJECT_NAME    = RESURS-DK 1
OBJECT_ID      = 2006-021A
CENTER_NAME    = EARTH
REF_FRAME      = TEME
TIME_SYSTEM    = UTC
MEAN_ELEMENT_THEORY = SGP/SGP4

EPOCH          = 2026-01-11T04:46:23.066112
MEAN_MOTION    = 15.12360493
ECCENTRICITY   = .00062322
INCLINATION    = 69.9341
RA_OF_ASC_NODE = 25.6937
ARG_OF_PERICENTER = 234.1025
MEAN_ANOMALY   = 125.9563

EPHEMERIS_TYPE = 0
CLASSIFICATION_TYPE = U
NORAD_CAT_ID   = 29228
ELEMENT_SET_NO = 999
REV_AT_EPOCH   = 7883
BSTAR          = .15403735E-3
MEAN_MOTION_DOT = .2571E-4
MEAN_MOTION_DDOT = 0

CCSDS_OMM_VERS = 2.0
CREATION_DATE  = 
ORIGINATOR     = 

OBJECT_NAME    = CZ-4B R/B
OBJECT_ID      = 2006-046C
CENTER_NAME    = EARTH
REF_FRAME      = TEME
TIME_SYSTEM    = UTC
MEAN_ELEMENT_THEORY = SGP/SGP4

EPOCH          = 2026-01-11T01:47:32.481600
MEAN_MOTION    = 15.16221654
ECCENTRICITY   = .00352478
INCLINATION    = 97.5699
RA_OF_ASC_NODE = 56.1338
ARG_OF_PERICENTER = 106.5437
MEAN_ANOMALY   = 253.9672

EPHEMERIS_TYPE = 0
CLASSIFICATION_TYPE = U
NORAD_CAT_ID   = 29507
ELEMENT_SET_NO = 999
REV_AT_EPOCH   = 5131
BSTAR          = .27497899E-3
MEAN_MOTION_DOT = .5329E-4
MEAN_MOTION_DDOT = 0

CCSDS_OMM_VERS = 2.0
CREATION_DATE  = 
ORIGINATOR     = 

OBJECT_NAME    = CZ-2C R/B
OBJECT_ID      = 2007-010B
CENTER_NAME    = EARTH
REF_FRAME      = TEME
TIME_SYSTEM    = UTC
MEAN_ELEMENT_THEORY = SGP/SGP4

EPOCH          = 2026-01-11T07:24:26.013024
MEAN_MOTION    = 14.20223816
ECCENTRICITY   = .00601144
INCLINATION    = 98.3972
RA_OF_ASC_NODE = 127.4718
ARG_OF_PERICENTER = 100.9726
MEAN_ANOMALY   = 259.8222

EPHEMERIS_TYPE = 0
CLASSIFICATION_TYPE = U
NORAD_CAT_ID   = 31114
ELEMENT_SET_NO = 999
REV_AT_EPOCH   = 97157
BSTAR          = .75842004E-4
MEAN_MOTION_DOT = .125E-5
MEAN_MOTION_DDOT = 0

CCSDS_OMM_VERS = 2.0
CREATION_DATE  = 
ORIGINATOR     = 

OBJECT_NAME    = COSMO-SKYMED 1
OBJECT_ID      = 2007-023A
CENTER_NAME    = EARTH
REF_FRAME      = TEME
TIME_SYSTEM    = UTC
MEAN_ELEMENT_THEORY = SGP/SGP4

EPOCH          = 2026-01-11T06:53:30.718176
MEAN_MOTION    = 14.96037197
ECCENTRICITY   = .00015252
INCLINATION    = 97.8855
RA_OF_ASC_NODE = 201.8857
ARG_OF_PERICENTER = 78.7365
MEAN_ANOMALY   = 281.4027

EPHEMERIS_TYPE = 0
CLASSIFICATION_TYPE = U
NORAD_CAT_ID   = 31598
ELEMENT_SET_NO = 999
REV_AT_EPOCH   = 632
BSTAR          = .36115271E-3
MEAN_MOTION_DOT = .3996E-4
MEAN_MOTION_DDOT = 0

CCSDS_OMM_VERS = 2.0
CREATION_DATE  = 
ORIGINATOR     = 

OBJECT_NAME    = COSMOS 2428
OBJECT_ID      = 2007-029A
CENTER_NAME    = EARTH
REF_FRAME      = TEME
TIME_SYSTEM    = UTC
MEAN_ELEMENT_THEORY = SGP/SGP4

EPOCH          = 2026-01-11T06:15:43.200288
MEAN_MOTION    = 14.12907278
ECCENTRICITY   = .00054236
INCLINATION    = 70.9392
RA_OF_ASC_NODE = 323.8976
ARG_OF_PERICENTER = 343.5563
MEAN_ANOMALY   = 16.5381

EPHEMERIS_TYPE = 0
CLASSIFICATION_TYPE = U
NORAD_CAT_ID   = 31792
ELEMENT_SET_NO = 999
REV_AT_EPOCH   = 95598
BSTAR          = .21476525E-3
MEAN_MOTION_DOT = .352E-5
MEAN_MOTION_DDOT = 0

CCSDS_OMM_VERS = 2.0
CREATION_DATE  = 
ORIGINATOR     = 

OBJECT_NAME    = SL-16 R/B
OBJECT_ID      = 2007-029B
CENTER_NAME    = EARTH
REF_FRAME      = TEME
TIME_SYSTEM    = UTC
MEAN_ELEMENT_THEORY = SGP/SGP4

EPOCH          = 2026-01-11T03:53:54.301056
MEAN_MOTION    = 14.14825439
ECCENTRICITY   = .00022372
INCLINATION    = 70.9770
RA_OF_ASC_NODE = 293.3100
ARG_OF_PERICENTER = 273.5206
MEAN_ANOMALY   = 187.7964

EPHEMERIS_TYPE = 0
CLASSIFICATION_TYPE = U
NORAD_CAT_ID   = 31793
ELEMENT_SET_NO = 999
REV_AT_EPOCH   = 95723
BSTAR          = -.59191051E-4
MEAN_MOTION_DOT = -.162E-5
MEAN_MOTION_DDOT = 0

CCSDS_OMM_VERS = 2.0
CREATION_DATE  = 
ORIGINATOR     = 

OBJECT_NAME    = KORONAS-FOTON
OBJECT_ID      = 2009-003A
CENTER_NAME    = EARTH
REF_FRAME      = TEME
TIME_SYSTEM    = UTC
MEAN_ELEMENT_THEORY = SGP/SGP4

EPOCH          = 2026-01-10T23:10:33.159648
MEAN_MOTION    = 15.41841046
ECCENTRICITY   = .00117335
INCLINATION    = 82.4318
RA_OF_ASC_NODE = 335.8076
ARG_OF_PERICENTER = 16.9240
MEAN_ANOMALY   = 343.2395

EPHEMERIS_TYPE = 0
CLASSIFICATION_TYPE = U
NORAD_CAT_ID   = 33504
ELEMENT_SET_NO = 999
REV_AT_EPOCH   = 93684
BSTAR          = .24439273E-3
MEAN_MOTION_DOT = .10422E-3
MEAN_MOTION_DDOT = 0

CCSDS_OMM_VERS = 2.0
CREATION_DATE  = 
ORIGINATOR     = 

OBJECT_NAME    = CZ-2C R/B
OBJECT_ID      = 2011-030B
CENTER_NAME    = EARTH
REF_FRAME      = TEME
TIME_SYSTEM    = UTC
MEAN_ELEMENT_THEORY = SGP/SGP4

EPOCH          = 2026-01-11T02:38:59.717760
MEAN_MOTION    = 14.81003759
ECCENTRICITY   = .00527503
INCLINATION    = 97.8453
RA_OF_ASC_NODE = 329.5752
ARG_OF_PERICENTER = 176.1559
MEAN_ANOMALY   = 194.8963

EPHEMERIS_TYPE = 0
CLASSIFICATION_TYPE = U
NORAD_CAT_ID   = 37731
ELEMENT_SET_NO = 999
REV_AT_EPOCH   = 78157
BSTAR          = .16408048E-3
MEAN_MOTION_DOT = .1247E-4
MEAN_MOTION_DDOT = 0

CCSDS_OMM_VERS = 2.0
CREATION_DATE  = 
ORIGINATOR     = 

OBJECT_NAME    = H-2A R/B
OBJECT_ID      = 2012-025E
CENTER_NAME    = EARTH
REF_FRAME      = TEME
TIME_SYSTEM    = UTC
MEAN_ELEMENT_THEORY = SGP/SGP4

EPOCH          = 2026-01-11T03:57:36.514944
MEAN_MOTION    = 14.94660718
ECCENTRICITY   = .00459472
INCLINATION    = 98.4635
RA_OF_ASC_NODE = 333.6746
ARG_OF_PERICENTER = 139.3739
MEAN_ANOMALY   = 221.0923

EPHEMERIS_TYPE = 0
CLASSIFICATION_TYPE = U
NORAD_CAT_ID   = 38341
ELEMENT_SET_NO = 999
REV_AT_EPOCH   = 73962
BSTAR          = .31892372E-3
MEAN_MOTION_DOT = .3461E-4
MEAN_MOTION_DDOT = 0

CCSDS_OMM_VERS = 2.0
CREATION_DATE  = 
ORIGINATOR     = 

OBJECT_NAME    = SHIJIAN-16 (SJ-16)
OBJECT_ID      = 2013-057A
CENTER_NAME    = EARTH
REF_FRAME      = TEME
TIME_SYSTEM    = UTC
MEAN_ELEMENT_THEORY = SGP/SGP4

EPOCH          = 2026-01-11T07:21:21.605184
MEAN_MOTION    = 14.92126544
ECCENTRICITY   = .00178334
INCLINATION    = 74.9735
RA_OF_ASC_NODE = 293.7056
ARG_OF_PERICENTER = 251.6032
MEAN_ANOMALY   = 108.3218

EPHEMERIS_TYPE = 0
CLASSIFICATION_TYPE = U
NORAD_CAT_ID   = 39358
ELEMENT_SET_NO = 999
REV_AT_EPOCH   = 66294
BSTAR          = .18278996E-3
MEAN_MOTION_DOT = .1835E-4
MEAN_MOTION_DDOT = 0

